GALAXY 3C (G-3C)        
1 27445U 02030A   26158.89716568 -.00000138  00000+0  00000+0 0  9990
2 27445   3.7060  78.1005 0001815  30.4754  15.8501  1.00271569 46404
INTELSAT 906 (IS-906)   
1 27513U 02041A   26158.83150067  .00000028  00000+0  00000+0 0  9995
2 27513   5.7801  73.0349 0004710 357.2645 189.4030  1.00271140 86938
NIMIQ 2                 
1 27632U 02062A   26158.62440133 -.00000057  00000+0  00000+0 0  9996
2 27632   9.4235  57.0007 0005753  16.4296 298.1865  1.00271991 44087
USA 167                 
1 27691U 03008A   26157.34720396  .00000013  00000+0  00000+0 0  9993
2 27691  10.9394  43.5041 0003866 316.3907 258.1291  1.00274349  6668
USA 169 (MILSTAR-2 4)   
1 27711U 03012A   26158.94598255 -.00000220  00000+0  00000+0 0  9996
2 27711  12.3351  29.9148 0101032   8.8485 350.2632  1.00270662 32851
ASIASAT 4               
1 27718U 03014A   26158.63128774 -.00000207  00000+0  00000+0 0  9991
2 27718   4.6810  75.8642 0002894   3.2591 191.7105  1.00272735 45203
HELLAS-SAT 2            
1 27811U 03020A   26159.07891816 -.00000070  00000+0  00000+0 0  9993
2 27811   7.3316  67.9930 0003504   8.1981 198.6843  1.00271511 42759
THURAYA-2               
1 27825U 03026A   26158.28170028  .00000136  00000+0  00000+0 0  9993
2 27825   8.8260  32.0226 0003149   4.4303   4.6399  1.00272850 84251
OPTUS C1                
1 27831U 03028B   26158.59029111 -.00000138  00000+0  00000+0 0  9995
2 27831   6.8649  69.5252 0005685   2.8502 191.8246  1.00270180 52968
USA 170                 
1 27875U 03040A   26159.00640068  .00000138  00000+0  00000+0 0  9993
2 27875  10.4801  48.0339 0002142  37.3598 197.6172  1.00277446 32904
GALAXY 13 (HORIZONS-1)  
1 27954U 03044A   26159.02882931  .00000148  00000+0  00000+0 0  9995
2 27954   1.3966  83.9694 0002092 348.1964  44.6224  1.00273107 46486
YAMAL 202               
1 28089U 03053A   26159.09075470 -.00000065  00000+0  00000+0 0  9993
2 28089   6.3213  71.0472 0003381 351.8536  29.8486  1.00272981 82615
UFO 11 (USA 174)        
1 28117U 03057A   26158.71699919 -.00000093  00000+0  00000+0 0  9998
2 28117   8.9338  33.8781 0002515  42.0982 153.8097  1.00274070 82352
USA 176 (DSP 22)        
1 28158U 04004A   26158.54912288 -.00000285  00000+0  00000+0 0  9997
2 28158  12.0487  26.1398 0001096 303.5056  72.0895  1.00408728 32843
ABS-4 (MOBISAT-1)       
1 28184U 04007A   26158.83150067  .00000054  00000+0  00000+0 0  9993
2 28184   6.0192  72.1200 0005144   2.3770 182.0229  1.00271182 52247
INTELSAT 10-02          
1 28358U 04022A   26158.91574572  .00000004  00000+0  00000+0 0  9998
2 28358   0.0048 329.6678 0000447 189.7889  65.5178  1.00271594 80465
ANIK F2                 
1 28378U 04027A   26159.10783412 -.00000034  00000+0  00000+0 0  9996
2 28378   3.2626  79.5679 0004333   2.5919 102.0365  1.00271848 41172
AMC-15                  
1 28446U 04041A   26159.10904747 -.00000073  00000+0  00000+0 0  9997
2 28446   0.0321 301.3721 0002291 140.1828 109.1621  1.00272576 79216
NSS-10                  
1 28526U 05003A   26159.14141970 -.00000237  00000+0  00000+0 0  9992
2 28526   6.4260  70.5628 0002985   6.2326 193.2065  1.00271696 53066
INMARSAT 4-F1           
1 28628U 05009A   26158.80863963  .00000046  00000+0  00000+0 0  9993
2 28628   5.1547  42.7373 0002755  36.3105 286.3956  1.00272574 77576
DIRECTV 8               
1 28659U 05019A   26159.10627411  .00000017  00000+0  00000+0 0  9996
2 28659   0.0040  88.1577 0002963 352.8200  94.7356  1.00271496 76986
GALAXY 28 (G-28)        
1 28702U 05022A   26159.13586205 -.00000185  00000+0  00000+0 0  9994
2 28702   3.2763  79.0408 0002828 353.0464 206.2458  1.00272650 51887
THAICOM 4               
1 28786U 05028A   26159.08200132 -.00000347  00000+0  00000+0 0  9998
2 28786   0.2208  86.0429 0001927 349.1589 330.3050  1.00270515 52150
ANIK F1R                
1 28868U 05036A   26158.96056307 -.00000060  00000+0  00000+0 0  9999
2 28868   4.2882  76.6939 0004326   4.1598  54.0321  1.00272630 46365
SYRACUSE 3A             
1 28885U 05041B   26159.01369082  .00000144  00000+0  00000+0 0  9990
2 28885   4.6203  75.9491 0003108 339.0390 252.9841  1.00270936 75654
INMARSAT 4-F2           
1 28899U 05044A   26159.01548303 -.00000247  00000+0  00000+0 0  9998
2 28899   5.0824  43.7089 0003052  32.7373 329.0274  1.00271495 75438
METEOSAT-9 (MSG-2)      
1 28912U 05049B   26158.97455411  .00000137  00000+0  00000+0 0  9997
2 28912   9.3397  54.2567 0001749 351.8629 246.7838  1.00268603  6908
EUTELSAT 174A           
1 28924U 05052A   26158.87914058  .00000024  00000+0  00000+0 0  9995
2 28924   4.1950  76.6412 0006410   0.8242 309.2942  1.00269756 52236
ECHOSTAR 10             
1 28935U 06003A   26159.10800747 -.00000040  00000+0  00000+0 0  9999
2 28935   0.0171 356.6201 0002072  48.2141 140.3788  1.00271413 74373
SPAINSAT                
1 28945U 06007A   26158.37349000 -.00000202  00000+0  00000+0 0  9992
2 28945   0.5367  86.7126 0004948 348.4119 284.9377  1.00272813 74124
JCSAT-5A                
1 29045U 06010A   26159.01340302 -.00000312  00000+0  00000+0 0  9998
2 29045   1.0847  84.3285 0002124  11.0728 297.8794  1.00270449 73676
ASTRA 1KR               
1 29055U 06012A   26159.13363265  .00000135  00000+0  00000+0 0  9999
2 29055   0.4494  83.2061 0003531 352.4389 247.9893  1.00272401 45604
